     2              NAVIGATION DATA                         RINEX VERSION / TYPE
CCRINEXN V1.6.0 UX  CDDIS               29-DEC-24 23:31     PGM / RUN BY / DATE 
IGS BROADCAST EPHEMERIS FILE                                COMMENT             
    0.2887D-07  0.2980D-07 -0.1192D-06  0.0000D+00          ION ALPHA           
    0.1556D+06 -0.2130D+06 -0.6554D+05  0.5243D+06          ION BETA            
   -0.186264514923D-08-0.355271367880D-14   147456     2347 DELTA-UTC: A0,A1,T,W
    18                                                      LEAP SECONDS        
                                                            END OF HEADER       
 9 24 12 28  2  0  0.0 0.505262054503D-03 0.156887836056D-10 0.000000000000D+00
    0.107000000000D+03-0.140937500000D+02 0.442839874630D-08-0.190218662863D+01
   -0.769272446632D-06 0.321009219624D-02 0.912696123123D-05 0.515379234505D+04
    0.525600000000D+06-0.279396772385D-07 0.329636934542D+00 0.428408384323D-07
    0.960630080933D+00 0.203843750000D+03 0.203000544437D+01-0.779782481070D-08
    0.455733268834D-09 0.100000000000D+01 0.234600000000D+04 0.000000000000D+00
    0.200000000000D+01 0.000000000000D+00 0.931322574616D-09 0.107000000000D+03
    0.525260000000D+06 0.400000000000D+01 0.000000000000D+00 0.000000000000D+00
10 24 12 28  2  0  0.0-0.252327416092D-03-0.158024704433D-10 0.000000000000D+00
    0.480000000000D+02-0.124906250000D+03 0.378051461647D-08-0.518204813288D+00
   -0.652857124805D-05 0.101094301790D-01 0.848621129990D-05 0.515368709183D+04
    0.525600000000D+06-0.558793544769D-08-0.687686425563D+00 0.154599547386D-06
    0.987326763243D+00 0.228906250000D+03-0.233687007821D+01-0.778032408173D-08
   -0.145720355552D-09 0.100000000000D+01 0.234600000000D+04 0.000000000000D+00
    0.200000000000D+01 0.000000000000D+00 0.232830600000D-08 0.480000000000D+02
    0.518460000000D+06 0.400000000000D+01 0.000000000000D+00 0.000000000000D+00
11 24 12 28  2  0  0.0-0.752659980208D-03 0.227373675443D-12 0.000000000000D+00
    0.115000000000D+03-0.404062500000D+02 0.457804783693D-08 0.290924696741D+01
   -0.211223959923D-05 0.175597239286D-02 0.834465026855D-06 0.515359107208D+04
    0.525600000000D+06-0.484287738800D-07-0.169297908532D+01-0.633299350738D-07
    0.965754324550D+00 0.363937500000D+03-0.235115503731D+01-0.829498837670D-08
   -0.142863093678D-09 0.100000000000D+01 0.234600000000D+04 0.000000000000D+00
    0.200000000000D+01 0.000000000000D+00-0.884756445885D-08 0.115000000000D+03
    0.518418000000D+06 0.400000000000D+01 0.000000000000D+00 0.000000000000D+00
12 24 12 28  2  0  0.0-0.561009626836D-03-0.227373675443D-11 0.000000000000D+00
    0.186000000000D+03 0.542812500000D+02 0.434232373236D-08 0.315542204537D+00
    0.261329114437D-05 0.895954226144D-02 0.973604619503D-05 0.515377280426D+04
    0.525600000000D+06-0.119209289551D-06 0.251879795612D+01-0.298023223877D-07
    0.961111604808D+00 0.193625000000D+03 0.146294751464D+01-0.789104297933D-08
   -0.380730144653D-09 0.100000000000D+01 0.234600000000D+04 0.000000000000D+00
    0.280000000000D+01 0.000000000000D+00-0.125728547573D-07 0.186000000000D+03
    0.518418000000D+06 0.400000000000D+01 0.000000000000D+00 0.000000000000D+00
13 24 12 28  2  0  0.0 0.691520981491D-03 0.136424205266D-11 0.000000000000D+00
    0.114000000000D+03 0.134375000000D+01 0.418410285611D-08-0.276163339106D+01
    0.124797224999D-06 0.880890211556D-02 0.818632543087D-05 0.515368072701D+04
    0.525600000000D+06 0.447034835815D-07 0.498677929057D+00-0.465661287308D-07
    0.972977280683D+00 0.227406250000D+03 0.971625902793D+00-0.756067207520D-08
    0.515735768179D-09 0.100000000000D+01 0.234600000000D+04 0.000000000000D+00
    0.200000000000D+01 0.000000000000D+00-0.111758708954D-07 0.114000000000D+03
    0.518418000000D+06 0.400000000000D+01 0.000000000000D+00 0.000000000000D+00
14 24 12 28  2  0  0.0 0.568797811866D-03 0.738964445190D-11 0.000000000000D+00
    0.240000000000D+02 0.356875000000D+02 0.473805450184D-08 0.174226393960D+00
    0.191666185856D-05 0.512320769485D-02 0.981427729130D-05 0.515370489311D+04
    0.525600000000D+06 0.745058059692D-07 0.247099466335D+01 0.745058059692D-07
    0.944391804361D+00 0.182218750000D+03-0.286214054152D+01-0.803319175754D-08
   -0.362515100209D-09 0.100000000000D+01 0.234600000000D+04 0.000000000000D+00
    0.200000000000D+01 0.000000000000D+00-0.791624188423D-08 0.280000000000D+03
    0.518418000000D+06 0.400000000000D+01 0.000000000000D+00 0.000000000000D+00
15 24 12 28  2  0  0.0 0.244771130383D-03 0.454747350886D-11 0.000000000000D+00
    0.360000000000D+02-0.214687500000D+02 0.479984278986D-08 0.279738660128D+01
   -0.109151005745D-05 0.161141551798D-01 0.920146703720D-05 0.515373987198D+04
    0.525600000000D+06 0.149011611938D-06 0.196326495501D+00-0.689178705216D-07
    0.937899695767D+00 0.186562500000D+03 0.138605381937D+01-0.772496463293D-08
    0.436446751188D-09 0.100000000000D+01 0.234600000000D+04 0.000000000000D+00
    0.200000000000D+01 0.000000000000D+00-0.102445483208D-07 0.360000000000D+02
    0.518418000000D+06 0.400000000000D+01 0.000000000000D+00 0.000000000000D+00
16 24 12 28  2  0  0.0-0.923336483538D-04 0.954969436862D-11 0.000000000000D+00
    0.790000000000D+02 0.616875000000D+02 0.426874923911D-08-0.146733219758D+01
    0.320933759212D-05 0.144332175842D-01 0.990740954876D-05 0.515367153549D+04
    0.525600000000D+06 0.288709998131D-06 0.253639268545D+01-0.409781932831D-07
    0.960491557220D+00 0.180406250000D+03 0.863248425693D+00-0.765139013968D-08
   -0.304298389535D-09 0.100000000000D+01 0.234600000000D+04 0.000000000000D+00
    0.200000000000D+01 0.000000000000D+00-0.107102096081D-07 0.790000000000D+02
    0.518418000000D+06 0.400000000000D+01 0.000000000000D+00 0.000000000000D+00
18 24 12 28  2  0  0.0-0.659551471472D-03 0.795807864051D-12 0.000000000000D+00
    0.860000000000D+02-0.398437500000D+02 0.454518932538D-08 0.177312753486D+01
   -0.196136534214D-05 0.479737354908D-02 0.927597284317D-06 0.515371725082D+04
    0.525600000000D+06-0.186264514923D-07-0.172025150050D+01 0.156462192535D-06
    0.973971792875D+00 0.370593750000D+03-0.293466998204D+01-0.837999191744D-08
   -0.131791203918D-09 0.100000000000D+01 0.234600000000D+04 0.000000000000D+00
    0.200000000000D+01 0.000000000000D+00-0.838190317154D-08 0.598000000000D+03
    0.518418000000D+06 0.400000000000D+01 0.000000000000D+00 0.000000000000D+00
19 24 12 28  2  0  0.0 0.579160172492D-03 0.466116034659D-11 0.000000000000D+00
    0.880000000000D+02 0.107625000000D+03 0.441589822560D-08-0.634981742796D+00
    0.564195215702D-05 0.100049609318D-01 0.500679016113D-05 0.515360540199D+04
    0.525600000000D+06 0.186264514923D-08-0.268265252130D+01-0.137835741043D-06
    0.965232618704D+00 0.286218750000D+03 0.269669925589D+01-0.817141180067D-08
    0.265011038773D-09 0.100000000000D+01 0.234600000000D+04 0.000000000000D+00
    0.200000000000D+01 0.000000000000D+00-0.153668224812D-07 0.880000000000D+02
    0.518418000000D+06 0.400000000000D+01 0.000000000000D+00 0.000000000000D+00
20 24 12 28  2  0  0.0 0.367540400475D-03-0.341060513165D-12 0.000000000000D+00
    0.470000000000D+02-0.125187500000D+03 0.440732643998D-08 0.216024494333D+01
   -0.666081905365D-05 0.384037941694D-02 0.696443021297D-05 0.515367078400D+04
    0.525600000000D+06-0.558793544769D-07-0.871858471011D+00-0.521540641785D-07
    0.956704419265D+00 0.244875000000D+03-0.238277718778D+01-0.799426156451D-08
   -0.209294432239D-09 0.100000000000D+01 0.234600000000D+04 0.000000000000D+00
    0.280000000000D+01 0.000000000000D+00-0.838190317154D-08 0.470000000000D+02
    0.524448000000D+06 0.400000000000D+01 0.000000000000D+00 0.000000000000D+00
21 24 12 28  2  0  0.0 0.987695530057D-04 0.238742359215D-11 0.000000000000D+00
    0.110000000000D+03 0.343750000000D+00 0.456483300076D-08-0.264813145090D+01
    0.363215804100D-06 0.258196161594D-01 0.122934579849D-06 0.515362687111D+04
    0.525600000000D+06-0.307336449623D-06-0.183292707188D+01 0.346451997757D-06
    0.960585930065D+00 0.381843750000D+03-0.470852230943D+00-0.805854995667D-08
   -0.464305054455D-11 0.100000000000D+01 0.234600000000D+04 0.000000000000D+00
    0.282842707634D+01 0.000000000000D+00-0.102445483208D-07 0.110000000000D+03
    0.518423000000D+06 0.400000000000D+01 0.000000000000D+00 0.000000000000D+00
22 24 12 28  2  0  0.0-0.890358351171D-04-0.227373675443D-11 0.000000000000D+00
    0.157000000000D+03 0.538437500000D+02 0.422624746874D-08-0.199257413544D+01
    0.304542481899D-05 0.135389519855D-01 0.100824981928D-04 0.515368320084D+04
    0.525600000000D+06-0.949949026108D-07 0.253969328026D+01 0.346451997757D-06
    0.959853204139D+00 0.185906250000D+03-0.107553990565D+01-0.766889086866D-08
   -0.349657421778D-09 0.100000000000D+01 0.234600000000D+04 0.000000000000D+00
    0.280000000000D+01 0.630000000000D+02-0.111758708954D-07 0.157000000000D+03
    0.518418000000D+06 0.400000000000D+01 0.000000000000D+00 0.000000000000D+00
23 24 12 28  2  0  0.0 0.392306596041D-03 0.761701812735D-11 0.000000000000D+00
    0.900000000000D+02-0.124906250000D+03 0.387194699642D-08 0.655046913585D+00
   -0.644661486149D-05 0.498520908877D-02 0.815652310848D-05 0.515363350105D+04
    0.525600000000D+06 0.353902578354D-07-0.717712140346D+00 0.614672899246D-07
    0.982420027749D+00 0.232000000000D+03-0.286881301767D+01-0.775818030221D-08
   -0.162149611325D-09 0.100000000000D+01 0.234600000000D+04 0.000000000000D+00
    0.200000000000D+01 0.000000000000D+00-0.838190317154D-08 0.858000000000D+03
    0.521298000000D+06 0.400000000000D+01 0.000000000000D+00 0.000000000000D+00
